STARLINK-35732          
1 67037U 25294H   25357.16668980 -.01934084  00000+0 -11668-1 0  9994
2 67037  42.9999 118.3122 0001692 272.6955  67.6701 15.79859587  1900
STARLINK-35775          
1 67038U 25294J   25357.16668980 -.01932863  00000+0 -11665-1 0  9995
2 67038  43.0002 118.3068 0001626 276.6731  65.8147 15.79849749  1903
STARLINK-35705          
1 67039U 25294K   25357.16668980 -.01935319  00000+0 -11693-1 0  9996
2 67039  43.0000 118.2960 0001524 270.6808  76.1665 15.79831816  1791
STARLINK-35786          
1 67040U 25294L   25357.16668980 -.01936358  00000+0 -11695-1 0  9994
2 67040  43.0002 118.3014 0001654 276.7202  68.0270 15.79839536  1794
STARLINK-35765          
1 67041U 25294M   25357.16668980 -.01932825  00000+0 -11679-1 0  9992
2 67041  43.0000 118.2908 0001668 277.3858  71.4948 15.79823636  1797
STARLINK-35773          
1 67042U 25294N   25357.16668980 -.01936067  00000+0 -11707-1 0  9997
2 67042  43.0001 118.2853 0001492 270.8170  80.2548 15.79816415  1980
STARLINK-35901          
1 67043U 25294P   25357.16668980 -.01930938  00000+0 -11678-1 0  9996
2 67043  43.0001 118.2800 0001654 277.5464  75.7005 15.79801449  1981
STARLINK-35884          
1 67044U 25294Q   25357.16668980 -.01932273  00000+0 -11691-1 0  9996
2 67044  43.0003 118.2746 0001624 277.1147  78.2516 15.79794673  1989
STARLINK-35891          
1 67045U 25294R   25357.16668980 -.01932942  00000+0 -11706-1 0  9997
2 67045  43.0003 118.2681 0001663 276.5786  81.2428 15.79774243  1902
STARLINK-35721          
1 67046U 25294S   25357.16668980 -.01940728  00000+0 -11767-1 0  9996
2 67046  43.0005 118.2626 0001582 274.7256  85.3554 15.79764714  1981
STARLINK-35779          
1 67047U 25294T   25357.16668980 -.01934638  00000+0 -11738-1 0  9998
2 67047  43.0004 118.2569 0001424 270.0976  92.4391 15.79740114  1795
STARLINK-35905          
1 67048U 25294U   25357.16668980 -.01936962  00000+0 -11755-1 0  9990
2 67048  43.0004 118.2517 0001390 270.6157  93.8912 15.79739575  1904
