CCSDS_OMM_VERS = 2.0
CREATION_DATE  = 
ORIGINATOR     = 

OBJECT_NAME    = STARLINK-35732
OBJECT_ID      = 2025-294H
CENTER_NAME    = EARTH
REF_FRAME      = TEME
TIME_SYSTEM    = UTC
MEAN_ELEMENT_THEORY = SGP/SGP4

EPOCH          = 2025-12-23T04:00:01.998720
MEAN_MOTION    = 15.79859587
ECCENTRICITY   = .0001692
INCLINATION    = 42.9999
RA_OF_ASC_NODE = 118.3122
ARG_OF_PERICENTER = 272.6955
MEAN_ANOMALY   = 67.6701

EPHEMERIS_TYPE = 0
CLASSIFICATION_TYPE = U
NORAD_CAT_ID   = 67037
ELEMENT_SET_NO = 999
REV_AT_EPOCH   = 190
BSTAR          = -.11668E-1
MEAN_MOTION_DOT = -.1934084E-1
MEAN_MOTION_DDOT = 0

CCSDS_OMM_VERS = 2.0
CREATION_DATE  = 
ORIGINATOR     = 

OBJECT_NAME    = STARLINK-35775
OBJECT_ID      = 2025-294J
CENTER_NAME    = EARTH
REF_FRAME      = TEME
TIME_SYSTEM    = UTC
MEAN_ELEMENT_THEORY = SGP/SGP4

EPOCH          = 2025-12-23T04:00:01.998720
MEAN_MOTION    = 15.79849749
ECCENTRICITY   = .0001626
INCLINATION    = 43.0002
RA_OF_ASC_NODE = 118.3068
ARG_OF_PERICENTER = 276.6731
MEAN_ANOMALY   = 65.8147

EPHEMERIS_TYPE = 0
CLASSIFICATION_TYPE = U
NORAD_CAT_ID   = 67038
ELEMENT_SET_NO = 999
REV_AT_EPOCH   = 190
BSTAR          = -.11665E-1
MEAN_MOTION_DOT = -.1932863E-1
MEAN_MOTION_DDOT = 0

CCSDS_OMM_VERS = 2.0
CREATION_DATE  = 
ORIGINATOR     = 

OBJECT_NAME    = STARLINK-35705
OBJECT_ID      = 2025-294K
CENTER_NAME    = EARTH
REF_FRAME      = TEME
TIME_SYSTEM    = UTC
MEAN_ELEMENT_THEORY = SGP/SGP4

EPOCH          = 2025-12-23T04:00:01.998720
MEAN_MOTION    = 15.79831816
ECCENTRICITY   = .0001524
INCLINATION    = 43.0000
RA_OF_ASC_NODE = 118.2960
ARG_OF_PERICENTER = 270.6808
MEAN_ANOMALY   = 76.1665

EPHEMERIS_TYPE = 0
CLASSIFICATION_TYPE = U
NORAD_CAT_ID   = 67039
ELEMENT_SET_NO = 999
REV_AT_EPOCH   = 179
BSTAR          = -.11693E-1
MEAN_MOTION_DOT = -.1935319E-1
MEAN_MOTION_DDOT = 0

CCSDS_OMM_VERS = 2.0
CREATION_DATE  = 
ORIGINATOR     = 

OBJECT_NAME    = STARLINK-35786
OBJECT_ID      = 2025-294L
CENTER_NAME    = EARTH
REF_FRAME      = TEME
TIME_SYSTEM    = UTC
MEAN_ELEMENT_THEORY = SGP/SGP4

EPOCH          = 2025-12-23T04:00:01.998720
MEAN_MOTION    = 15.79839536
ECCENTRICITY   = .0001654
INCLINATION    = 43.0002
RA_OF_ASC_NODE = 118.3014
ARG_OF_PERICENTER = 276.7202
MEAN_ANOMALY   = 68.0270

EPHEMERIS_TYPE = 0
CLASSIFICATION_TYPE = U
NORAD_CAT_ID   = 67040
ELEMENT_SET_NO = 999
REV_AT_EPOCH   = 179
BSTAR          = -.11695E-1
MEAN_MOTION_DOT = -.1936358E-1
MEAN_MOTION_DDOT = 0

CCSDS_OMM_VERS = 2.0
CREATION_DATE  = 
ORIGINATOR     = 

OBJECT_NAME    = STARLINK-35765
OBJECT_ID      = 2025-294M
CENTER_NAME    = EARTH
REF_FRAME      = TEME
TIME_SYSTEM    = UTC
MEAN_ELEMENT_THEORY = SGP/SGP4

EPOCH          = 2025-12-23T04:00:01.998720
MEAN_MOTION    = 15.79823636
ECCENTRICITY   = .0001668
INCLINATION    = 43.0000
RA_OF_ASC_NODE = 118.2908
ARG_OF_PERICENTER = 277.3858
MEAN_ANOMALY   = 71.4948

EPHEMERIS_TYPE = 0
CLASSIFICATION_TYPE = U
NORAD_CAT_ID   = 67041
ELEMENT_SET_NO = 999
REV_AT_EPOCH   = 179
BSTAR          = -.11679E-1
MEAN_MOTION_DOT = -.1932825E-1
MEAN_MOTION_DDOT = 0

CCSDS_OMM_VERS = 2.0
CREATION_DATE  = 
ORIGINATOR     = 

OBJECT_NAME    = STARLINK-35773
OBJECT_ID      = 2025-294N
CENTER_NAME    = EARTH
REF_FRAME      = TEME
TIME_SYSTEM    = UTC
MEAN_ELEMENT_THEORY = SGP/SGP4

EPOCH          = 2025-12-23T04:00:01.998720
MEAN_MOTION    = 15.79816415
ECCENTRICITY   = .0001492
INCLINATION    = 43.0001
RA_OF_ASC_NODE = 118.2853
ARG_OF_PERICENTER = 270.8170
MEAN_ANOMALY   = 80.2548

EPHEMERIS_TYPE = 0
CLASSIFICATION_TYPE = U
NORAD_CAT_ID   = 67042
ELEMENT_SET_NO = 999
REV_AT_EPOCH   = 198
BSTAR          = -.11707E-1
MEAN_MOTION_DOT = -.1936067E-1
MEAN_MOTION_DDOT = 0

CCSDS_OMM_VERS = 2.0
CREATION_DATE  = 
ORIGINATOR     = 

OBJECT_NAME    = STARLINK-35901
OBJECT_ID      = 2025-294P
CENTER_NAME    = EARTH
REF_FRAME      = TEME
TIME_SYSTEM    = UTC
MEAN_ELEMENT_THEORY = SGP/SGP4

EPOCH          = 2025-12-23T04:00:01.998720
MEAN_MOTION    = 15.79801449
ECCENTRICITY   = .0001654
INCLINATION    = 43.0001
RA_OF_ASC_NODE = 118.2800
ARG_OF_PERICENTER = 277.5464
MEAN_ANOMALY   = 75.7005

EPHEMERIS_TYPE = 0
CLASSIFICATION_TYPE = U
NORAD_CAT_ID   = 67043
ELEMENT_SET_NO = 999
REV_AT_EPOCH   = 198
BSTAR          = -.11678E-1
MEAN_MOTION_DOT = -.1930938E-1
MEAN_MOTION_DDOT = 0

CCSDS_OMM_VERS = 2.0
CREATION_DATE  = 
ORIGINATOR     = 

OBJECT_NAME    = STARLINK-35884
OBJECT_ID      = 2025-294Q
CENTER_NAME    = EARTH
REF_FRAME      = TEME
TIME_SYSTEM    = UTC
MEAN_ELEMENT_THEORY = SGP/SGP4

EPOCH          = 2025-12-23T04:00:01.998720
MEAN_MOTION    = 15.79794673
ECCENTRICITY   = .0001624
INCLINATION    = 43.0003
RA_OF_ASC_NODE = 118.2746
ARG_OF_PERICENTER = 277.1147
MEAN_ANOMALY   = 78.2516

EPHEMERIS_TYPE = 0
CLASSIFICATION_TYPE = U
NORAD_CAT_ID   = 67044
ELEMENT_SET_NO = 999
REV_AT_EPOCH   = 198
BSTAR          = -.11691E-1
MEAN_MOTION_DOT = -.1932273E-1
MEAN_MOTION_DDOT = 0

CCSDS_OMM_VERS = 2.0
CREATION_DATE  = 
ORIGINATOR     = 

OBJECT_NAME    = STARLINK-35891
OBJECT_ID      = 2025-294R
CENTER_NAME    = EARTH
REF_FRAME      = TEME
TIME_SYSTEM    = UTC
MEAN_ELEMENT_THEORY = SGP/SGP4

EPOCH          = 2025-12-23T04:00:01.998720
MEAN_MOTION    = 15.79774243
ECCENTRICITY   = .0001663
INCLINATION    = 43.0003
RA_OF_ASC_NODE = 118.2681
ARG_OF_PERICENTER = 276.5786
MEAN_ANOMALY   = 81.2428

EPHEMERIS_TYPE = 0
CLASSIFICATION_TYPE = U
NORAD_CAT_ID   = 67045
ELEMENT_SET_NO = 999
REV_AT_EPOCH   = 190
BSTAR          = -.11706E-1
MEAN_MOTION_DOT = -.1932942E-1
MEAN_MOTION_DDOT = 0

CCSDS_OMM_VERS = 2.0
CREATION_DATE  = 
ORIGINATOR     = 

OBJECT_NAME    = STARLINK-35721
OBJECT_ID      = 2025-294S
CENTER_NAME    = EARTH
REF_FRAME      = TEME
TIME_SYSTEM    = UTC
MEAN_ELEMENT_THEORY = SGP/SGP4

EPOCH          = 2025-12-23T04:00:01.998720
MEAN_MOTION    = 15.79764714
ECCENTRICITY   = .0001582
INCLINATION    = 43.0005
RA_OF_ASC_NODE = 118.2626
ARG_OF_PERICENTER = 274.7256
MEAN_ANOMALY   = 85.3554

EPHEMERIS_TYPE = 0
CLASSIFICATION_TYPE = U
NORAD_CAT_ID   = 67046
ELEMENT_SET_NO = 999
REV_AT_EPOCH   = 198
BSTAR          = -.11767E-1
MEAN_MOTION_DOT = -.1940728E-1
MEAN_MOTION_DDOT = 0

CCSDS_OMM_VERS = 2.0
CREATION_DATE  = 
ORIGINATOR     = 

OBJECT_NAME    = STARLINK-35779
OBJECT_ID      = 2025-294T
CENTER_NAME    = EARTH
REF_FRAME      = TEME
TIME_SYSTEM    = UTC
MEAN_ELEMENT_THEORY = SGP/SGP4

EPOCH          = 2025-12-23T04:00:01.998720
MEAN_MOTION    = 15.79740114
ECCENTRICITY   = .0001424
INCLINATION    = 43.0004
RA_OF_ASC_NODE = 118.2569
ARG_OF_PERICENTER = 270.0976
MEAN_ANOMALY   = 92.4391

EPHEMERIS_TYPE = 0
CLASSIFICATION_TYPE = U
NORAD_CAT_ID   = 67047
ELEMENT_SET_NO = 999
REV_AT_EPOCH   = 179
BSTAR          = -.11738E-1
MEAN_MOTION_DOT = -.1934638E-1
MEAN_MOTION_DDOT = 0

CCSDS_OMM_VERS = 2.0
CREATION_DATE  = 
ORIGINATOR     = 

OBJECT_NAME    = STARLINK-35905
OBJECT_ID      = 2025-294U
CENTER_NAME    = EARTH
REF_FRAME      = TEME
TIME_SYSTEM    = UTC
MEAN_ELEMENT_THEORY = SGP/SGP4

EPOCH          = 2025-12-23T04:00:01.998720
MEAN_MOTION    = 15.79739575
ECCENTRICITY   = .000139
INCLINATION    = 43.0004
RA_OF_ASC_NODE = 118.2517
ARG_OF_PERICENTER = 270.6157
MEAN_ANOMALY   = 93.8912

EPHEMERIS_TYPE = 0
CLASSIFICATION_TYPE = U
NORAD_CAT_ID   = 67048
ELEMENT_SET_NO = 999
REV_AT_EPOCH   = 190
BSTAR          = -.11755E-1
MEAN_MOTION_DOT = -.1936962E-1
MEAN_MOTION_DDOT = 0

